     2.10           N: GPS NAV DATA                         RINEX VERSION / TYPE
teqc  2011Oct11                         20130103 00:04:16UTCPGM / RUN BY / DATE
Solaris 5.9|UltraSparc IIe|cc -xarch=v9 SC5.8|=+-|*Sparc    COMMENT
teqc  2011Oct11                         20130102 01:03:28UTCCOMMENT
teqc  2012Jul9                          20130102 00:18:08UTCCOMMENT
                                                            END OF HEADER
30 13  1  2  9 59 44.0-2.647992223501D-04 1.239186531166D-11 0.000000000000D+00
    3.600000000000D+01 2.150000000000D+01 4.769127224720D-09 2.807116132957D+00
    9.611248970032D-07 1.085549872369D-02 3.194436430931D-06 5.153603084564D+03
    2.951840000000D+05 1.676380634308D-07-1.028396359671D+00-5.029141902924D-08
    9.622665683907D-01 3.180937500000D+02 1.612434477557D+00-8.204270312218D-09
    1.642925577302D-10 1.000000000000D+00 1.721000000000D+03 0.000000000000D+00
    2.800000000000D+00 0.000000000000D+00-4.656612873077D-09 3.600000000000D+01
    2.880180000000D+05 4.000000000000D+00
 8 13  1  2  9 59 44.0 3.766734153032D-06 2.273736754432D-13 0.000000000000D+00
    3.500000000000D+01 6.687500000000D+01 3.596221225620D-09-4.947823698546D-01
    3.578141331673D-06 1.271265943069D-02 9.151175618172D-06 5.153618650436D+03
    2.951840000000D+05 2.346932888031D-07-1.868955489178D+00 7.636845111847D-08
    9.981570486076D-01 2.202500000000D+02-2.886882648239D+00-7.795681864298D-09
    2.985838657879D-10 1.000000000000D+00 1.721000000000D+03 0.000000000000D+00
    2.000000000000D+00 0.000000000000D+00-4.190951585770D-09 3.500000000000D+01
    2.880180000000D+05 4.000000000000D+00
 6 13  1  2 10  0  0.0 4.029967822134D-04-1.352873368887D-11 0.000000000000D+00
    1.460000000000D+02-8.818750000000D+01 5.053781938875D-09-2.731741094404D+00
   -4.446133971214D-06 7.561791921034D-03 7.536262273788D-06 5.153687749863D+03
    2.952000000000D+05-1.173466444016D-07 5.830835097115D-02 8.381903171539D-08
    9.402203256419D-01 2.221562500000D+02-3.987042097336D-01-8.207484731826D-09
   -1.985797002130D-10 1.000000000000D+00 1.721000000000D+03 0.000000000000D+00
    2.000000000000D+00 0.000000000000D+00-5.122274160385D-09 1.460000000000D+02
    2.880180000000D+05 4.000000000000D+00
17 13  1  2 10  0  0.0 6.362143903971D-05-3.524291969370D-12 0.000000000000D+00
    6.500000000000D+01-1.019375000000D+02 4.461971573312D-09 2.881893989332D+00
   -5.265697836876D-06 7.956195040606D-03 8.344650268555D-06 5.153782112122D+03
    2.952000000000D+05 2.048909664154D-08 1.575977932892D-01-1.080334186554D-07
    9.647465027300D-01 2.180625000000D+02-2.265920587751D+00-7.928544541419D-09
   -2.792973481413D-10 1.000000000000D+00 1.721000000000D+03 0.000000000000D+00
    2.000000000000D+00 0.000000000000D+00-1.071020960808D-08 6.500000000000D+01
    2.903820000000D+05 4.000000000000D+00
23 13  1  2  9 59 44.0 1.279651187360D-04-3.751665644813D-12 0.000000000000D+00
    1.000000000000D+00-1.625000000000D+01 4.558761319279D-09 1.742335397297D+00
   -7.487833499908D-07 8.136769058183D-03 8.683651685715D-06 5.153770063400D+03
    2.951840000000D+05-6.146728992462D-08-3.009474729777D+00 1.434236764908D-07
    9.578841354220D-01 2.116875000000D+02-2.916845873013D+00-8.092479941415D-09
   -5.096640866978D-10 1.000000000000D+00 1.721000000000D+03 0.000000000000D+00
    2.000000000000D+00 0.000000000000D+00-2.048909664154D-08 1.000000000000D+00
    2.917260000000D+05 4.000000000000D+00
28 13  1  2 10  0  0.0 2.196831628680D-04 3.524291969370D-12 0.000000000000D+00
    4.900000000000D+01-3.656250000000D+00 4.346966782901D-09-2.657108870061D+00
   -2.570450305939D-07 1.859554869588D-02 3.039836883545D-06 5.153634300232D+03
    2.952000000000D+05 2.887099981308D-07-8.741154741895D-01 2.607703208923D-08
    9.815510792795D-01 3.277187500000D+02-1.798387946145D+00-7.934259065166D-09
    2.867976605595D-10 1.000000000000D+00 1.721000000000D+03 0.000000000000D+00
    2.000000000000D+00 0.000000000000D+00-1.071020960808D-08 4.900000000000D+01
    2.918220000000D+05 4.000000000000D+00
 4 13  1  2  9 59 44.0 9.305495768785D-05 1.114131009672D-11 0.000000000000D+00
    5.000000000000D+00 1.115625000000D+01 4.889489381144D-09-1.521514686542D+00
    6.239861249924D-07 1.041217136662D-02 1.088529825211D-05 5.153724796295D+03
    2.951840000000D+05 2.495944499969D-07 1.163704113450D+00 1.862645149231D-08
    9.374662185109D-01 1.543750000000D+02 9.496848511689D-01-8.079265105250D-09
    2.453673633927D-10 1.000000000000D+00 1.721000000000D+03 0.000000000000D+00
    2.000000000000D+00 0.000000000000D+00-6.519258022308D-09 5.000000000000D+00
    2.929080000000D+05 4.000000000000D+00
 8 13  1  2 12  0  0.0 3.768131136894D-06 2.273736754432D-13 0.000000000000D+00
    3.600000000000D+01 6.781250000000D+01 3.526932625186D-09 5.577606406038D-01
    3.619119524956D-06 1.271300390363D-02 9.158626198769D-06 5.153619306564D+03
    3.024000000000D+05 1.396983861923D-07-1.869011406296D+00 2.663582563400D-07
    9.981592663914D-01 2.225937500000D+02-2.886884555884D+00-7.734607891750D-09
    2.353669468352D-10 1.000000000000D+00 1.721000000000D+03 0.000000000000D+00
    2.000000000000D+00 0.000000000000D+00-4.190951585770D-09 3.600000000000D+01
    2.952180000000D+05 4.000000000000D+00
11 13  1  2 12  0  0.0-3.394531086087D-04-3.751665644813D-12 0.000000000000D+00
    6.400000000000D+01-2.218750000000D+01 6.198115319239D-09 1.349794350250D+00
   -1.186504960060D-06 1.380654051900D-02 1.093186438084D-05 5.153686618805D+03
    3.024000000000D+05-3.296881914139D-07 8.792836229037D-01-5.215406417847D-08
    8.885101974904D-01 1.342812500000D+02 1.135602406581D+00-8.867869382355D-09
    6.750281176306D-11 1.000000000000D+00 1.721000000000D+03 0.000000000000D+00
    2.000000000000D+00 0.000000000000D+00-1.164153218269D-08 6.400000000000D+01
    2.952180000000D+05 4.000000000000D+00
20 13  1  2 12  0  0.0 7.856683805585D-05 1.364242052659D-12 0.000000000000D+00
    7.600000000000D+01 3.678125000000D+01 5.660592929274D-09-2.910923113118D-01
    1.918524503708D-06 5.442527122796D-03 4.950910806656D-06 5.153557884216D+03
    3.024000000000D+05-1.862645149231D-08 2.163928834379D+00 9.313225746155D-08
    9.284996995565D-01 2.664062500000D+02 1.280998918884D+00-8.753221749678D-09
    3.750156209059D-11 1.000000000000D+00 1.721000000000D+03 0.000000000000D+00
    2.000000000000D+00 0.000000000000D+00-7.916241884232D-09 7.600000000000D+01
    2.952180000000D+05 4.000000000000D+00
 7 13  1  2 12  0  0.0 1.642266288400D-04 4.433786671143D-12 0.000000000000D+00
    2.400000000000D+01 6.215625000000D+01 3.994809256983D-09 1.148977726140D+00
    3.259629011154D-06 6.050847005099D-03 9.300187230110D-06 5.153715665817D+03
    3.024000000000D+05-6.146728992462D-08-1.957119410245D+00 1.210719347000D-07
    9.757030101296D-01 2.083437500000D+02-2.921958269919D+00-7.847469735756D-09
    1.321483616526D-10 1.000000000000D+00 1.721000000000D+03 0.000000000000D+00
    2.000000000000D+00 0.000000000000D+00-1.117587089539D-08 2.400000000000D+01
    2.952180000000D+05 4.000000000000D+00
 1 13  1  2 12  0  0.0 2.909749746323D-04 2.273736754432D-12 0.000000000000D+00
    2.000000000000D+00 1.662500000000D+01 4.555189741937D-09 1.551445144878D+00
    9.164214134216D-07 1.529239816591D-03 1.051463186741D-05 5.153710830688D+03
    3.024000000000D+05-1.676380634308D-08 1.165529836676D+00 5.029141902924D-08
    9.599035138915D-01 1.758125000000D+02 4.983854478458D-01-7.947116743597D-09
    2.089372745047D-10 1.000000000000D+00 1.721000000000D+03 0.000000000000D+00
    2.000000000000D+00 0.000000000000D+00 8.381903171539D-09 2.000000000000D+00
    2.952180000000D+05 4.000000000000D+00
32 13  1  2 12  0  0.0-5.224863998592D-04-3.524291969370D-12 0.000000000000D+00
    7.900000000000D+01 3.359375000000D+01 5.045210153254D-09 1.728074077496D+00
    1.773238182068D-06 1.168495602906D-02 4.831701517105D-06 5.153775861740D+03
    3.024000000000D+05 8.195638656616D-08 2.300750347030D+00 1.713633537292D-07
    9.498917516728D-01 2.777187500000D+02-4.216950279648D-01-8.293916903501D-09
   -2.171519023912D-10 1.000000000000D+00 1.721000000000D+03 0.000000000000D+00
    2.000000000000D+00 0.000000000000D+00-3.259629011154D-09 7.900000000000D+01
    2.952180000000D+05 4.000000000000D+00
28 13  1  2 12  0  0.0 2.197087742388D-04 3.524291969370D-12 0.000000000000D+00
    5.000000000000D+01 1.843750000000D+00 4.330537527128D-09-1.606941520067D+00
    5.383044481277D-07 1.859592658002D-02 3.077089786530D-06 5.153632835388D+03
    3.024000000000D+05 3.017485141754D-07-8.741723114828D-01 3.036111593246D-07
    9.815525231796D-01 3.270937500000D+02-1.798351662851D+00-8.088908364073D-09
    2.207234797332D-10 1.000000000000D+00 1.721000000000D+03 0.000000000000D+00
    2.000000000000D+00 0.000000000000D+00-1.071020960808D-08 5.000000000000D+01
    2.952180000000D+05 4.000000000000D+00
 4 13  1  2 12  0  0.0 9.313505142927D-05 1.114131009672D-11 0.000000000000D+00
    6.000000000000D+00 1.721875000000D+01 5.043424364583D-09-4.690574908587D-01
    9.778887033463D-07 1.041244389489D-02 1.100264489651D-05 5.153724567413D+03
    3.024000000000D+05-2.421438694000D-08 1.163644836010D+00 1.471489667892D-07
    9.374664935395D-01 1.544375000000D+02 9.497146917718D-01-8.386777914392D-09
    2.139374827835D-10 1.000000000000D+00 1.721000000000D+03 0.000000000000D+00
    2.000000000000D+00 0.000000000000D+00-6.519258022308D-09 6.000000000000D+00
    2.952180000000D+05 4.000000000000D+00
